{
  "type": "FeatureCollection",
  "features": [
    {
      "type": "Feature",
      "properties": {
        "norad_id": 29828,
        "name": "FENGYUN 1C DEB",
        "group": "fengyun-1c-debris",
        "lat": 1.1658131527600295,
        "lon": -138.74503723169346,
        "alt_km": 838.3357637664949,
        "timestamp": "2025-12-21T20:41:08.233232+00:00",
        "meta_object_name": "FENGYUN 1C DEB",
        "meta_object_id": "1999-025DW",
        "meta_epoch": "2025-12-21T10:09:59.256864",
        "meta_mean_motion": 14.0818708,
        "meta_eccentricity": 0.00614611,
        "meta_inclination": 98.7693,
        "meta_ra_of_asc_node": 40.6491,
        "meta_arg_of_pericenter": 132.0079,
        "meta_mean_anomaly": 345.4677,
        "meta_ephemeris_type": 0,
        "meta_classification_type": "U",
        "meta_norad_cat_id": 29828,
        "meta_element_set_no": 999,
        "meta_rev_at_epoch": 96859,
        "meta_bstar": 0.00068531978,
        "meta_mean_motion_dot": 1.147e-05,
        "meta_mean_motion_ddot": 0,
        "tle_line1": "1 29828U 99025DW  25355.42360251  .00001147  00000+0  68532-3 0  9996",
        "tle_line2": "2 29828  98.7693  40.6491 0061461 132.0079 345.4677 14.08187080968597"
      },
      "geometry": {
        "type": "Point",
        "coordinates": [
          -138.74503723169346,
          1.1658131527600295
        ]
      }
    },
    {
      "type": "Feature",
      "properties": {
        "norad_id": 29832,
        "name": "FENGYUN 1C DEB",
        "group": "fengyun-1c-debris",
        "lat": -1.4242646242974253,
        "lon": 108.04209714144056,
        "alt_km": 736.7831507952988,
        "timestamp": "2025-12-21T20:41:08.233241+00:00",
        "meta_object_name": "FENGYUN 1C DEB",
        "meta_object_id": "1999-025EA",
        "meta_epoch": "2025-12-21T14:05:51.334080",
        "meta_mean_motion": 14.56571924,
        "meta_eccentricity": 0.01922337,
        "meta_inclination": 98.8196,
        "meta_ra_of_asc_node": 107.5305,
        "meta_arg_of_pericenter": 255.984,
        "meta_mean_anomaly": 101.9918,
        "meta_ephemeris_type": 0,
        "meta_classification_type": "U",
        "meta_norad_cat_id": 29832,
        "meta_element_set_no": 999,
        "meta_rev_at_epoch": 384,
        "meta_bstar": 0.00015082845,
        "meta_mean_motion_dot": 7.97e-06,
        "meta_mean_motion_ddot": 0,
        "tle_line1": "1 29832U 99025EA  25355.58739970  .00000797  00000+0  15083-3 0  9999",
        "tle_line2": "2 29832  98.8196 107.5305 0192233 255.9840 101.9918 14.56571924  3849"
      },
      "geometry": {
        "type": "Point",
        "coordinates": [
          108.04209714144056,
          -1.4242646242974253
        ]
      }
    },
    {
      "type": "Feature",
      "properties": {
        "norad_id": 29833,
        "name": "FENGYUN 1C DEB",
        "group": "fengyun-1c-debris",
        "lat": 57.75711241875473,
        "lon": -35.13767601064537,
        "alt_km": 648.8413396788783,
        "timestamp": "2025-12-21T20:41:08.233251+00:00",
        "meta_object_name": "FENGYUN 1C DEB",
        "meta_object_id": "1999-025EB",
        "meta_epoch": "2025-12-20T21:52:24.407040",
        "meta_mean_motion": 14.91269561,
        "meta_eccentricity": 0.0088607,
        "meta_inclination": 99.0772,
        "meta_ra_of_asc_node": 338.4519,
        "meta_arg_of_pericenter": 230.4262,
        "meta_mean_anomaly": 128.9103,
        "meta_ephemeris_type": 0,
        "meta_classification_type": "U",
        "meta_norad_cat_id": 29833,
        "meta_element_set_no": 999,
        "meta_rev_at_epoch": 693,
        "meta_bstar": 0.00074773,
        "meta_mean_motion_dot": 7.95e-05,
        "meta_mean_motion_ddot": 0,
        "tle_line1": "1 29833U 99025EB  25354.91139360  .00007950  00000+0  74773-3 0  9992",
        "tle_line2": "2 29833  99.0772 338.4519 0088607 230.4262 128.9103 14.91269561  6938"
      },
      "geometry": {
        "type": "Point",
        "coordinates": [
          -35.13767601064537,
          57.75711241875473
        ]
      }
    },
    {
      "type": "Feature",
      "properties": {
        "norad_id": 29835,
        "name": "FENGYUN 1C DEB",
        "group": "fengyun-1c-debris",
        "lat": 59.62946414244197,
        "lon": -39.463304963788254,
        "alt_km": 778.2982122097546,
        "timestamp": "2025-12-21T20:41:08.233260+00:00",
        "meta_object_name": "FENGYUN 1C DEB",
        "meta_object_id": "1999-025ED",
        "meta_epoch": "2025-12-20T07:47:06.077760",
        "meta_mean_motion": 14.43377492,
        "meta_eccentricity": 0.01675614,
        "meta_inclination": 99.0261,
        "meta_ra_of_asc_node": 123.1687,
        "meta_arg_of_pericenter": 14.7882,
        "meta_mean_anomaly": 37.7889,
        "meta_ephemeris_type": 0,
        "meta_classification_type": "U",
        "meta_norad_cat_id": 29835,
        "meta_element_set_no": 999,
        "meta_rev_at_epoch": 99604,
        "meta_bstar": 3.7805809e-05,
        "meta_mean_motion_dot": 9.3e-07,
        "meta_mean_motion_ddot": 0,
        "tle_line1": "1 29835U 99025ED  25354.32437590  .00000093  00000+0  37806-4 0  9993",
        "tle_line2": "2 29835  99.0261 123.1687 0167561  14.7882  37.7889 14.43377492996044"
      },
      "geometry": {
        "type": "Point",
        "coordinates": [
          -39.463304963788254,
          59.62946414244197
        ]
      }
    },
    {
      "type": "Feature",
      "properties": {
        "norad_id": 29836,
        "name": "FENGYUN 1C DEB",
        "group": "fengyun-1c-debris",
        "lat": -1.5302133619460438,
        "lon": 91.8293314591825,
        "alt_km": 824.8177291420989,
        "timestamp": "2025-12-21T20:41:08.233269+00:00",
        "meta_object_name": "FENGYUN 1C DEB",
        "meta_object_id": "1999-025EE",
        "meta_epoch": "2025-12-20T18:52:00.569280",
        "meta_mean_motion": 14.54149605,
        "meta_eccentricity": 0.01549173,
        "meta_inclination": 98.188,
        "meta_ra_of_asc_node": 90.5561,
        "meta_arg_of_pericenter": 177.5236,
        "meta_mean_anomaly": 312.8448,
        "meta_ephemeris_type": 0,
        "meta_classification_type": "U",
        "meta_norad_cat_id": 29836,
        "meta_element_set_no": 999,
        "meta_rev_at_epoch": 63672,
        "meta_bstar": 0.00041409008,
        "meta_mean_motion_dot": 2.003e-05,
        "meta_mean_motion_ddot": 0,
        "tle_line1": "1 29836U 99025EE  25354.78611770  .00002003  00000+0  41409-3 0  9994",
        "tle_line2": "2 29836  98.1880  90.5561 0154917 177.5236 312.8448 14.54149605636721"
      },
      "geometry": {
        "type": "Point",
        "coordinates": [
          91.8293314591825,
          -1.5302133619460438
        ]
      }
    },
    {
      "type": "Feature",
      "properties": {
        "norad_id": 29841,
        "name": "FENGYUN 1C DEB",
        "group": "fengyun-1c-debris",
        "lat": 55.27376256834899,
        "lon": 136.33090570074106,
        "alt_km": 873.9193372723776,
        "timestamp": "2025-12-21T20:41:08.233278+00:00",
        "meta_object_name": "FENGYUN 1C DEB",
        "meta_object_id": "1999-025EK",
        "meta_epoch": "2025-12-21T09:05:13.506720",
        "meta_mean_motion": 14.46511571,
        "meta_eccentricity": 0.01999603,
        "meta_inclination": 98.82,
        "meta_ra_of_asc_node": 302.8828,
        "meta_arg_of_pericenter": 307.705,
        "meta_mean_anomaly": 180.6892,
        "meta_ephemeris_type": 0,
        "meta_classification_type": "U",
        "meta_norad_cat_id": 29841,
        "meta_element_set_no": 999,
        "meta_rev_at_epoch": 99448,
        "meta_bstar": 0.00037473783,
        "meta_mean_motion_dot": 1.67e-05,
        "meta_mean_motion_ddot": 0,
        "tle_line1": "1 29841U 99025EK  25355.37862855  .00001670  00000+0  37474-3 0  9994",
        "tle_line2": "2 29841  98.8200 302.8828 0199960 307.7050 180.6892 14.46511571994483"
      },
      "geometry": {
        "type": "Point",
        "coordinates": [
          136.33090570074106,
          55.27376256834899
        ]
      }
    },
    {
      "type": "Feature",
      "properties": {
        "norad_id": 29842,
        "name": "FENGYUN 1C DEB",
        "group": "fengyun-1c-debris",
        "lat": -80.46259953267644,
        "lon": -160.11802512416446,
        "alt_km": 746.7303069361096,
        "timestamp": "2025-12-21T20:41:08.233287+00:00",
        "meta_object_name": "FENGYUN 1C DEB",
        "meta_object_id": "1999-025EL",
        "meta_epoch": "2025-12-21T11:50:29.358240",
        "meta_mean_motion": 14.60357209,
        "meta_eccentricity": 0.01090691,
        "meta_inclination": 98.5692,
        "meta_ra_of_asc_node": 83.3272,
        "meta_arg_of_pericenter": 138.5339,
        "meta_mean_anomaly": 350.0776,
        "meta_ephemeris_type": 0,
        "meta_classification_type": "U",
        "meta_norad_cat_id": 29842,
        "meta_element_set_no": 999,
        "meta_rev_at_epoch": 99481,
        "meta_bstar": 0.00095083601,
        "meta_mean_motion_dot": 4.948e-05,
        "meta_mean_motion_ddot": 0,
        "tle_line1": "1 29842U 99025EL  25355.49339535  .00004948  00000+0  95084-3 0  9994",
        "tle_line2": "2 29842  98.5692  83.3272 0109069 138.5339 350.0776 14.60357209994814"
      },
      "geometry": {
        "type": "Point",
        "coordinates": [
          -160.11802512416446,
          -80.46259953267644
        ]
      }
    }
  ]
}